[{"OBJECT_NAME":"KUIPER-00249","OBJECT_ID":"2025-301X","EPOCH":"2026-03-09T05:18:48.483072","MEAN_MOTION":15.38089031,"ECCENTRICITY":0.0010501,"INCLINATION":51.8645,"RA_OF_ASC_NODE":67.547,"ARG_OF_PERICENTER":44.4239,"MEAN_ANOMALY":315.7589,"EPHEMERIS_TYPE":0,"CLASSIFICATION_TYPE":"U","NORAD_CAT_ID":67154,"ELEMENT_SET_NO":999,"REV_AT_EPOCH":1366,"BSTAR":0.00055185506,"MEAN_MOTION_DOT":0.0002071,"MEAN_MOTION_DDOT":0},{"OBJECT_NAME":"TRANSPORTER-6 OBJECT H","OBJECT_ID":"2023-001H","EPOCH":"2026-03-09T22:33:13.150656","MEAN_MOTION":15.3897652,"ECCENTRICITY":0.00084522,"INCLINATION":97.3274,"RA_OF_ASC_NODE":133.0043,"ARG_OF_PERICENTER":107.7381,"MEAN_ANOMALY":252.4788,"EPHEMERIS_TYPE":0,"CLASSIFICATION_TYPE":"U","NORAD_CAT_ID":55016,"ELEMENT_SET_NO":999,"REV_AT_EPOCH":17694,"BSTAR":0.00043815759,"MEAN_MOTION_DOT":0.0001686,"MEAN_MOTION_DDOT":0}]
